1 25585U 98075A   15330.50642366 -.00000311  00000-0  00000+0 0  9993
2 25585   6.3563  55.7370 0016885  88.9041 243.8015  0.99156020 61760
1 25585U 98075A   15331.56522154 -.00000307 +00000-0 +00000-0 0  9998
2 25585 006.3581 055.7289 0016839 088.9340 261.7369 00.99155652061761
1 25585U 98075A   15332.65098503 -.00000297  00000-0  00000+0 0  9992
2 25585   6.3600  55.7206 0016787  88.9817 289.2777  0.99155186 61796
1 25585U 98075A   15333.66730779 -.00000282 +00000-0 +00000-0 0  9997
2 25585 006.3618 055.7128 0016747 089.0268 292.0294 00.99154677061796
1 25585U 98075A   15334.67559828 -.00000263  00000-0  00000+0 0  9991
2 25585   6.3636  55.7051 0016699  89.0725 291.9122  0.99154163 61816
1 25585U 98075A   15335.69625654 -.00000240 +00000-0 +00000-0 0  9991
2 25585 006.3654 055.6973 0016645 089.1227 296.2033 00.99153624061817
1 25585U 98075A   15336.80342345 -.00000211  00000-0  00000+0 0  9995
2 25585   6.3674  55.6889 0016604  89.1798 331.3653  0.99153017 61830
1 25585U 98075A   15337.72697809 -.00000185 +00000-0 +00000-0 0  9996
2 25585 006.3690 055.6819 0016556 089.2129 301.0070 00.99152534061836
1 25585U 98075A   15338.73978013 -.00000154 +00000-0 +00000-0 0  9993
2 25585 006.3708 055.6743 0016504 089.2454 302.5052 00.99152020061843
1 25585U 98075A   15339.74709953 -.00000123  00000-0  00000+0 0  9995
2 25585   6.3726  55.6669 0016455  89.2768 302.0463  0.99151556 61869
1 25585U 98075A   15340.69937618 -.00000093 +00000-0 +00000-0 0  9999
2 25585 006.3743 055.6598 0016396 089.2787 281.9663 00.99151135061864
1 25585U 98075A   15341.77709519 -.00000060  00000-0  00000+0 0  9999
2 25585   6.3762  55.6518 0016311  89.2556 306.6865  0.99150697 61881
1 25585U 98075A   15341.95861266 -.00000055 +00000-0 +00000-0 0  9992
2 25585 006.3766 055.6506 0016265 089.2206 011.5144 00.99150622061871
1 25585U 98075A   15343.85943233 -.00000002  00000-0  00000+0 0  9999
2 25585   6.3800  55.6363 0016111  89.0608 330.1798  0.99150102 61907
1 25585U 98075A   15344.67914447 +.00000017 +00000-0 +00000-0 0  9991
2 25585 006.3814 055.6302 0016082 089.0854 262.7531 00.99149932061897
1 25585U 98075A   15346.70580808  .00000057  00000-0  00000+0 0  9990
2 25585   6.3850  55.6148 0015943  88.9055 266.3556  0.99149786 61930
1 25585U 98075A   15348.79044147  .00000082  00000-0  00000+0 0  9990
2 25585   6.3887  55.5989 0015812  88.6417 290.7350  0.99149958 61952
1 25585U 98075A   15349.74255097 +.00000087 +00000-0 +00000-0 0  9990
2 25585 006.3903 055.5918 0015777 088.5568 270.6804 00.99150184061942
1 25585U 98075A   15350.79551626  .00000089  00000-0  00000+0 0  9995
2 25585   6.3922  55.5838 0015733  88.4267 286.6693  0.99150410 61979
1 25585U 98075A   15350.79551626 +.00000089 +00000-0 +00000-0 0  9996
2 25585 006.3922 055.5838 0015733 088.4267 286.6693 00.99150410061968
1 25585U 98075A   15351.68604862 +.00000086 +00000-0 +00000-0 0  9993
2 25585 006.3938 055.5772 0015694 088.3125 244.6636 00.99150682061962
1 25585U 98075A   15352.77611318 +.00000079 +00000-0 +00000-0 0  9990
2 25585 006.3956 055.5690 0015668 088.1949 273.8869 00.99151077061987
1 25585U 98075A   15355.06865352  .00000050  00000-0  00000+0 0  9992
2 25585   6.3996  55.5520 0015592  87.9301  12.4944  0.99152051 62017
1 25585U 98075A   15358.05292647 -.00000009  00000-0  00000+0 0  9990
2 25585   6.4047  55.5294 0015522  87.7472 357.9525  0.99153429 62048
1 25585U 98075A   15359.81984826 -.00000050 +00000-0 +00000-0 0  9999
2 25585 006.4077 055.5160 0015470 087.6341 268.7971 00.99154186062044
1 25585U 98075A   15360.13099299 -.00000058  00000-0  00000+0 0  9994
2 25585   6.4082  55.5136 0015491  87.7399  19.7618  0.99154354 62061
1 25585U 98075A   15362.21088509 -.00000106  00000-0  00000+0 0  9991
2 25585   6.4118  55.4977 0015424  87.6786  42.2806  0.99155094 62082
1 25585U 98075A   15363.80379119 -.00000139 +00000-0 +00000-0 0  9994
2 25585 006.4146 055.4855 0015376 087.6360 250.9472 00.99155585062084
1 25585U 98075A   15364.81450575 -.00000159  00000-0  00000+0 0  9993
2 25585   6.4164  55.4779 0015332  87.5937 251.7880  0.99155827 62104
1 25585U 98075A   15365.90025603 -.00000178 +00000-0 +00000-0 0  9996
2 25585 006.4183 055.4696 0015284 087.5479 279.4192 00.99156034062115
1 25585U 98075A   16001.09491317 -.00000182 +00000-0 +00000-0 0  9998
2 25585 006.4186 055.4682 0015275 087.5344 348.9206 00.99156067062118
1 25585U 98075A   16003.35738317 -.00000215  00000-0  00000+0 0  9999
2 25585   6.4225  55.4512 0015125  87.1726  76.9246  0.99156161 62148
1 25585U 98075A   16004.31532362 -.00000225 +00000-0 +00000-0 0  9990
2 25585 006.4242 055.4439 0015082 087.0887 058.9714 00.99156190062146
1 25585U 98075A   16006.28004395 -.00000241  00000-0  00000+0 0  9995
2 25585   6.4276  55.4290 0014992  86.8275  40.5854  0.99155931 62172
1 25585U 98075A   16006.84120926 -.00000244 +00000-0 +00000-0 0  9990
2 25585 006.4286 055.4246 0014966 086.7509 240.9813 00.99155783062169
1 25585U 98075A   16007.07210912 -.00000245 +00000-0 +00000-0 0  9992
2 25585 006.4290 055.4229 0014948 086.6501 323.5083 00.99155770062170
1 25585U 98075A   16008.06715041 -.00000248 +00000-0 +00000-0 0  9998
2 25585 006.4307 055.4153 0014905 086.5069 318.8561 00.99155592062187
1 25585U 98075A   16009.06312911 -.00000248  00000-0  00000+0 0  9997
2 25585   6.4324  55.4076 0014864  86.3345 314.5661  0.99155350 62208
1 25585U 98075A   16011.13077558 -.00000241  00000-0  00000+0 0  9996
2 25585   6.4360  55.3915 0014790  85.9174 333.0726  0.99154700 62220
1 25585U 98075A   16011.84282171 -.00000236 +00000-0 +00000-0 0  9998
2 25585 006.4372 055.3860 0014769 085.7670 227.4022 00.99154457062210
1 25585U 98075A   16012.19654679 -.00000233 +00000-0 +00000-0 0  9990
2 25585 006.4378 055.3831 0014758 085.6689 353.7693 00.99154338062227
1 25585U 98075A   16013.14557558 -.00000225  00000-0  00000+0 0  9994
2 25585   6.4394  55.3756 0014735  85.4718 332.7398  0.99154001 62245
1 25585U 98075A   16015.14908196 -.00000200  00000-0  00000+0 0  9997
2 25585   6.4428  55.3601 0014705  85.0160 328.3796  0.99153245 62260
1 25585U 98075A   16015.46595943 -.00000195 +00000-0 +00000-0 0  9998
2 25585 006.4434 055.3578 0014712 085.0168 081.4940 00.99153152062250
1 25585U 98075A   16016.90930773 -.00000173 +00000-0 +00000-0 0  9998
2 25585 006.4458 055.3467 0014701 084.7194 237.0116 00.99152550062262
1 25585U 98075A   16017.11142353 -.00000169 +00000-0 +00000-0 0  9996
2 25585 006.4461 055.3450 0014700 084.6652 309.2145 00.99152507062272
1 25585U 98075A   16018.38990938 -.00000147  00000-0  00000+0 0  9991
2 25585   6.4483  55.3352 0014687  84.4135  45.8378  0.99152092 62297
1 25585U 98075A   16020.36563237 -.00000110 +00000-0 +00000-0 0  9991
2 25585 006.4516 055.3199 0014677 084.1309 031.3723 00.99151442062306
1 25585U 98075A   16021.19618400 -.00000094  00000-0  00000+0 0  9996
2 25585   6.4530  55.3133 0014674  84.0074 327.9677  0.99151212 62324
1 25585U 98075A   16022.33477352 -.00000070 +00000-0 +00000-0 0  9997
2 25585 006.4549 055.3043 0014660 083.8907 014.5133 00.99150969062325
1 25585U 98075A   16024.06884426 -.00000034  00000-0  00000+0 0  9992
2 25585   6.4579  55.2905 0014647  83.6828 273.7090  0.99150677 62359
1 25585U 98075A   16024.57427637 -.00000024 +00000-0 +00000-0 0  9995
2 25585 006.4588 055.2865 0014625 083.5375 094.2704 00.99150601062340
1 25585U 98075A   16025.40794425 -.00000007 +00000-0 +00000-0 0  9991
2 25585 006.4602 055.2799 0014615 083.4980 031.8922 00.99150531062355
1 25585U 98075A   16026.52825991  .00000013  00000-0  00000+0 0  9993
2 25585   6.4622  55.2711 0014598  83.4227  71.8715  0.99150530 62370
1 25585U 98075A   16027.49224495 +.00000030 +00000-0 +00000-0 0  9992
2 25585 006.4639 055.2635 0014581 083.3389 056.0526 00.99150500062375
1 25585U 98075A   16028.67570002  .00000047  00000-0  00000+0 0  9998
2 25585   6.4659  55.2541 0014558  83.1773 118.6547  0.99150586 62396
1 25585U 98075A   16030.38442769 +.00000065 +00000-0 +00000-0 0  9998
2 25585 006.4689 055.2407 0014523 082.9943 008.7776 00.99150845062401
1 25585U 98075A   16031.11668762  .00000069  00000-0  00000+0 0  9996
2 25585   6.4702  55.2350 0014505  82.9151 270.2423  0.99151018 62425
1 25585U 98075A   16031.67256498 +.00000071 +00000-0 +00000-0 0  9990
2 25585 006.4712 055.2306 0014496 082.8140 108.7663 00.99151115062411
1 25585U 98075A   16032.68071255 +.00000073 +00000-0 +00000-0 0  9990
2 25585 006.4729 055.2226 0014477 082.7386 108.7072 00.99151385062424
1 25585U 98075A   16033.20795911  .00000072  00000-0  00000+0 0  9999
2 25585   6.4738  55.2184 0014459  82.6431 297.0090  0.99151583 62441
1 25585U 98075A   16033.57869674 +.00000071 +00000-0 +00000-0 0  9997
2 25585 006.4745 055.2155 0014462 082.5386 069.4541 00.99151762062439
1 25585U 98075A   16034.64107742 +.00000064 +00000-0 +00000-0 0  9999
2 25585 006.4763 055.2069 0014444 082.3200 088.8994 00.99152120062443
1 25585U 98075A   16035.34671772  .00000057  00000-0  00000+0 0  9997
2 25585   6.4775  55.2011 0014427  82.1924 340.9096  0.99152307 62469
1 25585U 98075A   16035.72123639 +.00000053 +00000-0 +00000-0 0  9990
2 25585 006.4782 055.1980 0014429 082.0977 114.6956 00.99152506062451
1 25585U 98075A   16036.46617758 +.00000043 +00000-0 +00000-0 0  9991
2 25585 006.4794 055.1920 0014418 081.8992 020.8102 00.99152814062464
1 25585U 98075A   16037.37746666  .00000029  00000-0  00000+0 0  9996
2 25585   6.4810  55.1846 0014405  81.6910 346.3190  0.99153277 62483
1 25585U 98075A   16037.59337624 +.00000025 +00000-0 +00000-0 0  9997
2 25585 006.4814 055.1828 0014411 081.6074 063.4715 00.99153287062475
1 25585U 98075A   16038.69689227 +.00000003 +00000-0 +00000-0 0  9994
2 25585 006.4833 055.1738 0014411 081.3626 097.6389 00.99153884062486
1 25585U 98075A   16039.77037140 -.00000022  00000-0  00000+0 0  9996
2 25585   6.4851  55.1650 0014410  81.1000 121.0950  0.99154254 62503
1 25585U 98075A   16040.77828153 -.00000047 +00000-0 +00000-0 0  9998
2 25585 006.4868 055.1569 0014418 080.8484 121.1416 00.99154731062508
